DMSP 5D-3 F16 (USA 172) 
1 28054U 03048A   26066.66676914  .00000179  00000+0  11699-3 0  9994
2 28054  98.9995  89.7787 0008155  77.7451  32.3394 14.14461227155137
METEOSAT-9 (MSG-2)      
1 28912U 05049B   26066.08982206  .00000123  00000+0  00000+0 0  9999
2 28912   9.1309  55.1553 0001569 224.3730 323.3977  1.00278827  5972
DMSP 5D-3 F17 (USA 191) 
1 29522U 06050A   26066.62734003  .00000248  00000+0  15055-3 0  9998
2 29522  98.7414  75.2644 0009888 352.8826   7.2206 14.14962963998053
FENGYUN 3A              
1 32958U 08026A   26066.40923263  .00000164  00000+0  98077-4 0  9997
2 32958  98.6796   9.1974 0009732  64.1705 296.0474 14.19545602920963
GOES 14                 
1 35491U 09033A   26066.47683577  .00000121  00000+0  00000+0 0  9996
2 35491   1.4269  84.3767 0001754 259.2285 193.1965  1.00100837  5572
DMSP 5D-3 F18 (USA 210) 
1 35951U 09057A   26066.59080065  .00000354  00000+0  20644-3 0  9997
2 35951  98.8962  47.6273 0011008 174.2146 185.9156 14.14834449845229
EWS-G2 (GOES 15)        
1 36411U 10008A   26066.57594853  .00000020  00000+0  00000+0 0  9990
2 36411   1.0163  85.0841 0002165  16.8873 334.1046  1.00270074 58613
COMS 1                  
1 36744U 10032A   26066.33447340 -.00000345  00000+0  00000+0 0  9999
2 36744   4.5427  76.8252 0001022 272.1975  64.5956  1.00271843 50068
FENGYUN 3B              
1 37214U 10059A   26066.63031039  .00000488  00000+0  27563-3 0  9992
2 37214  98.9766 112.1526 0023017 113.6288  53.3368 14.14818869793067
SUOMI NPP               
1 37849U 11061A   26066.62869221  .00000126  00000+0  80764-4 0  9993
2 37849  98.7868   8.2478 0000403 247.9771 112.1362 14.19542835744038
METEOSAT-10 (MSG-3)     
1 38552U 12035B   26066.26572604 -.00000007  00000+0  00000+0 0  9992
2 38552   4.4303  61.4505 0002485 283.9683 275.4508  1.00268083 49831
METOP-B                 
1 38771U 12049A   26066.61486086  .00000140  00000+0  83720-4 0  9999
2 38771  98.6646 120.0793 0001178 277.3045  82.7999 14.21443914698835
INSAT-3D                
1 39216U 13038B   26066.60611702 -.00000340  00000+0  00000+0 0  9995
2 39216   1.6634  83.8695 0001658 250.1631 178.9722  1.00272160 46061
FENGYUN 3C              
1 39260U 13052A   26066.62626701  .00000167  00000+0  10590-3 0  9992
2 39260  98.4889  45.2175 0013941 319.5136  40.5001 14.15728178644196
METEOR-M 2              
1 40069U 14037A   26066.64201241  .00000126  00000+0  76792-4 0  9997
2 40069  98.5027  46.0292 0005464 343.9032  16.1971 14.21427221604896
HIMAWARI-8              
1 40267U 14060A   26066.53586584 -.00000277  00000+0  00000+0 0  9999
2 40267   0.0194 228.2128 0000502  77.0077 193.5870  1.00274114 41744
FENGYUN 2G              
1 40367U 14090A   26066.02915513 -.00000304  00000+0  00000+0 0  9996
2 40367   5.3807  74.0559 0001657 149.1646  51.7161  1.00273777 40970
