[{"OBJECT_NAME":"DMSP 5D-3 F16 (USA 172)","OBJECT_ID":"2003-048A","EPOCH":"2026-03-07T16:00:08.853696","MEAN_MOTION":14.14461227,"ECCENTRICITY":0.00081554,"INCLINATION":98.9995,"RA_OF_ASC_NODE":89.7787,"ARG_OF_PERICENTER":77.7451,"MEAN_ANOMALY":32.3394,"EPHEMERIS_TYPE":0,"CLASSIFICATION_TYPE":"U","NORAD_CAT_ID":28054,"ELEMENT_SET_NO":999,"REV_AT_EPOCH":15513,"BSTAR":0.00011699221,"MEAN_MOTION_DOT":1.79e-6,"MEAN_MOTION_DDOT":0},{"OBJECT_NAME":"METEOSAT-9 (MSG-2)","OBJECT_ID":"2005-049B","EPOCH":"2026-03-07T02:09:20.625984","MEAN_MOTION":1.00278827,"ECCENTRICITY":0.00015692,"INCLINATION":9.1309,"RA_OF_ASC_NODE":55.1553,"ARG_OF_PERICENTER":224.373,"MEAN_ANOMALY":323.3977,"EPHEMERIS_TYPE":0,"CLASSIFICATION_TYPE":"U","NORAD_CAT_ID":28912,"ELEMENT_SET_NO":999,"REV_AT_EPOCH":597,"BSTAR":0,"MEAN_MOTION_DOT":1.23e-6,"MEAN_MOTION_DDOT":0},{"OBJECT_NAME":"DMSP 5D-3 F17 (USA 191)","OBJECT_ID":"2006-050A","EPOCH":"2026-03-07T15:03:22.178592","MEAN_MOTION":14.14962963,"ECCENTRICITY":0.00098888,"INCLINATION":98.7414,"RA_OF_ASC_NODE":75.2644,"ARG_OF_PERICENTER":352.8826,"MEAN_ANOMALY":7.2206,"EPHEMERIS_TYPE":0,"CLASSIFICATION_TYPE":"U","NORAD_CAT_ID":29522,"ELEMENT_SET_NO":999,"REV_AT_EPOCH":99805,"BSTAR":0.00015055355,"MEAN_MOTION_DOT":2.48e-6,"MEAN_MOTION_DDOT":0},{"OBJECT_NAME":"FENGYUN 3A","OBJECT_ID":"2008-026A","EPOCH":"2026-03-07T09:49:17.699232","MEAN_MOTION":14.19545602,"ECCENTRICITY":0.00097321,"INCLINATION":98.6796,"RA_OF_ASC_NODE":9.1974,"ARG_OF_PERICENTER":64.1705,"MEAN_ANOMALY":296.0474,"EPHEMERIS_TYPE":0,"CLASSIFICATION_TYPE":"U","NORAD_CAT_ID":32958,"ELEMENT_SET_NO":999,"REV_AT_EPOCH":92096,"BSTAR":9.8077001e-5,"MEAN_MOTION_DOT":1.64e-6,"MEAN_MOTION_DDOT":0},{"OBJECT_NAME":"GOES 14","OBJECT_ID":"2009-033A","EPOCH":"2026-03-07T11:26:38.610528","MEAN_MOTION":1.00100837,"ECCENTRICITY":0.00017547,"INCLINATION":1.4269,"RA_OF_ASC_NODE":84.3767,"ARG_OF_PERICENTER":259.2285,"MEAN_ANOMALY":193.1965,"EPHEMERIS_TYPE":0,"CLASSIFICATION_TYPE":"U","NORAD_CAT_ID":35491,"ELEMENT_SET_NO":999,"REV_AT_EPOCH":557,"BSTAR":0,"MEAN_MOTION_DOT":1.21e-6,"MEAN_MOTION_DDOT":0},{"OBJECT_NAME":"DMSP 5D-3 F18 (USA 210)","OBJECT_ID":"2009-057A","EPOCH":"2026-03-07T14:10:45.176160","MEAN_MOTION":14.14834449,"ECCENTRICITY":0.00110087,"INCLINATION":98.8962,"RA_OF_ASC_NODE":47.6273,"ARG_OF_PERICENTER":174.2146,"MEAN_ANOMALY":185.9156,"EPHEMERIS_TYPE":0,"CLASSIFICATION_TYPE":"U","NORAD_CAT_ID":35951,"ELEMENT_SET_NO":999,"REV_AT_EPOCH":84522,"BSTAR":0.00020643759,"MEAN_MOTION_DOT":3.54e-6,"MEAN_MOTION_DDOT":0},{"OBJECT_NAME":"EWS-G2 (GOES 15)","OBJECT_ID":"2010-008A","EPOCH":"2026-03-07T13:49:21.952992","MEAN_MOTION":1.00270074,"ECCENTRICITY":0.00021659,"INCLINATION":1.0163,"RA_OF_ASC_NODE":85.0841,"ARG_OF_PERICENTER":16.8873,"MEAN_ANOMALY":334.1046,"EPHEMERIS_TYPE":0,"CLASSIFICATION_TYPE":"U","NORAD_CAT_ID":36411,"ELEMENT_SET_NO":999,"REV_AT_EPOCH":5861,"BSTAR":0,"MEAN_MOTION_DOT":2.0e-7,"MEAN_MOTION_DDOT":0},{"OBJECT_NAME":"COMS 1","OBJECT_ID":"2010-032A","EPOCH":"2026-03-07T08:01:38.501760","MEAN_MOTION":1.00271843,"ECCENTRICITY":0.00010224,"INCLINATION":4.5427,"RA_OF_ASC_NODE":76.8252,"ARG_OF_PERICENTER":272.1975,"MEAN_ANOMALY":64.5956,"EPHEMERIS_TYPE":0,"CLASSIFICATION_TYPE":"U","NORAD_CAT_ID":36744,"ELEMENT_SET_NO":999,"REV_AT_EPOCH":5006,"BSTAR":0,"MEAN_MOTION_DOT":-3.45e-6,"MEAN_MOTION_DDOT":0},{"OBJECT_NAME":"FENGYUN 3B","OBJECT_ID":"2010-059A","EPOCH":"2026-03-07T15:07:38.817696","MEAN_MOTION":14.14818869,"ECCENTRICITY":0.00230178,"INCLINATION":98.9766,"RA_OF_ASC_NODE":112.1526,"ARG_OF_PERICENTER":113.6288,"MEAN_ANOMALY":53.3368,"EPHEMERIS_TYPE":0,"CLASSIFICATION_TYPE":"U","NORAD_CAT_ID":37214,"ELEMENT_SET_NO":999,"REV_AT_EPOCH":79306,"BSTAR":0.00027562579,"MEAN_MOTION_DOT":4.88e-6,"MEAN_MOTION_DDOT":0},{"OBJECT_NAME":"SUOMI NPP","OBJECT_ID":"2011-061A","EPOCH":"2026-03-07T15:05:19.006944","MEAN_MOTION":14.19542835,"ECCENTRICITY":4.03e-5,"INCLINATION":98.7868,"RA_OF_ASC_NODE":8.2478,"ARG_OF_PERICENTER":247.9771,"MEAN_ANOMALY":112.1362,"EPHEMERIS_TYPE":0,"CLASSIFICATION_TYPE":"U","NORAD_CAT_ID":37849,"ELEMENT_SET_NO":999,"REV_AT_EPOCH":74403,"BSTAR":8.0764184e-5,"MEAN_MOTION_DOT":1.26e-6,"MEAN_MOTION_DDOT":0},{"OBJECT_NAME":"METEOSAT-10 (MSG-3)","OBJECT_ID":"2012-035B","EPOCH":"2026-03-07T06:22:38.729856","MEAN_MOTION":1.00268083,"ECCENTRICITY":0.0002485,"INCLINATION":4.4303,"RA_OF_ASC_NODE":61.4505,"ARG_OF_PERICENTER":283.9683,"MEAN_ANOMALY":275.4508,"EPHEMERIS_TYPE":0,"CLASSIFICATION_TYPE":"U","NORAD_CAT_ID":38552,"ELEMENT_SET_NO":999,"REV_AT_EPOCH":4983,"BSTAR":0,"MEAN_MOTION_DOT":-7.0e-8,"MEAN_MOTION_DDOT":0},{"OBJECT_NAME":"METOP-B","OBJECT_ID":"2012-049A","EPOCH":"2026-03-07T14:45:23.978304","MEAN_MOTION":14.21443914,"ECCENTRICITY":0.00011786,"INCLINATION":98.6646,"RA_OF_ASC_NODE":120.0793,"ARG_OF_PERICENTER":277.3045,"MEAN_ANOMALY":82.7999,"EPHEMERIS_TYPE":0,"CLASSIFICATION_TYPE":"U","NORAD_CAT_ID":38771,"ELEMENT_SET_NO":999,"REV_AT_EPOCH":69883,"BSTAR":8.3720296e-5,"MEAN_MOTION_DOT":1.4e-6,"MEAN_MOTION_DDOT":0},{"OBJECT_NAME":"INSAT-3D","OBJECT_ID":"2013-038B","EPOCH":"2026-03-07T14:32:48.510528","MEAN_MOTION":1.0027216,"ECCENTRICITY":0.00016583,"INCLINATION":1.6634,"RA_OF_ASC_NODE":83.8695,"ARG_OF_PERICENTER":250.1631,"MEAN_ANOMALY":178.9722,"EPHEMERIS_TYPE":0,"CLASSIFICATION_TYPE":"U","NORAD_CAT_ID":39216,"ELEMENT_SET_NO":999,"REV_AT_EPOCH":4606,"BSTAR":0,"MEAN_MOTION_DOT":-3.4e-6,"MEAN_MOTION_DDOT":0},{"OBJECT_NAME":"FENGYUN 3C","OBJECT_ID":"2013-052A","EPOCH":"2026-03-07T15:01:49.469664","MEAN_MOTION":14.15728178,"ECCENTRICITY":0.00139415,"INCLINATION":98.4889,"RA_OF_ASC_NODE":45.2175,"ARG_OF_PERICENTER":319.5136,"MEAN_ANOMALY":40.5001,"EPHEMERIS_TYPE":0,"CLASSIFICATION_TYPE":"U","NORAD_CAT_ID":39260,"ELEMENT_SET_NO":999,"REV_AT_EPOCH":64419,"BSTAR":0.00010590076,"MEAN_MOTION_DOT":1.67e-6,"MEAN_MOTION_DDOT":0},{"OBJECT_NAME":"METEOR-M 2","OBJECT_ID":"2014-037A","EPOCH":"2026-03-07T15:24:29.872224","MEAN_MOTION":14.21427221,"ECCENTRICITY":0.00054646,"INCLINATION":98.5027,"RA_OF_ASC_NODE":46.0292,"ARG_OF_PERICENTER":343.9032,"MEAN_ANOMALY":16.1971,"EPHEMERIS_TYPE":0,"CLASSIFICATION_TYPE":"U","NORAD_CAT_ID":40069,"ELEMENT_SET_NO":999,"REV_AT_EPOCH":60489,"BSTAR":7.6792125e-5,"MEAN_MOTION_DOT":1.26e-6,"MEAN_MOTION_DDOT":0},{"OBJECT_NAME":"HIMAWARI-8","OBJECT_ID":"2014-060A","EPOCH":"2026-03-07T12:51:38.808576","MEAN_MOTION":1.00274114,"ECCENTRICITY":5.023e-5,"INCLINATION":0.0194,"RA_OF_ASC_NODE":228.2128,"ARG_OF_PERICENTER":77.0077,"MEAN_ANOMALY":193.587,"EPHEMERIS_TYPE":0,"CLASSIFICATION_TYPE":"U","NORAD_CAT_ID":40267,"ELEMENT_SET_NO":999,"REV_AT_EPOCH":4174,"BSTAR":0,"MEAN_MOTION_DOT":-2.77e-6,"MEAN_MOTION_DDOT":0},{"OBJECT_NAME":"FENGYUN 2G","OBJECT_ID":"2014-090A","EPOCH":"2026-03-07T00:41:59.003232","MEAN_MOTION":1.00273777,"ECCENTRICITY":0.0001657,"INCLINATION":5.3807,"RA_OF_ASC_NODE":74.0559,"ARG_OF_PERICENTER":149.1646,"MEAN_ANOMALY":51.7161,"EPHEMERIS_TYPE":0,"CLASSIFICATION_TYPE":"U","NORAD_CAT_ID":40367,"ELEMENT_SET_NO":999,"REV_AT_EPOCH":4097,"BSTAR":0,"MEAN_MOTION_DOT":-3.04e-6,"MEAN_MOTION_DDOT":0}]
